IRIDIUM 26              
1 24903U 97043A   25186.21928991  .00000306  00000+0  96345-4 0  9993
2 24903  86.3958 103.0490 0002344  80.9109 279.2354 14.37157044459800
IRIDIUM 22              
1 24907U 97043E   25185.88528682  .00000252  00000+0  80106-4 0  9990
2 24907  86.3964 106.7443 0002182  83.4953 276.6492 14.35967718459308
DUMMY MASS 1            
1 24925U 97048A   25186.31753127  .00000360  00000+0  37007-4 0  9990
2 24925  86.3364 126.9491 0009067  84.3563 275.8696 14.86998014508069
DUMMY MASS 2            
1 24926U 97048B   25186.21539402  .00000366  00000+0  37884-4 0  9997
2 24926  86.3364 128.6065 0009870  93.3234 266.9120 14.86749933507823
IRIDIUM 29              
1 24944U 97051A   25186.38954170  .00000343  00000+0  11012-3 0  9991
2 24944  86.3980 136.2657 0002142  90.0152 270.1290 14.36479972456104
IRIDIUM 33              
1 24946U 97051C   25185.90319069  .00000264  00000+0  85989-4 0  9999
2 24946  86.3895 135.7313 0009022  34.0602 326.1171 14.34901534455297
IRIDIUM 28              
1 24948U 97051E   25185.86441193  .00000303  00000+0  94808-4 0  9994
2 24948  86.3983 133.9923 0002581  76.8019 283.3466 14.37395947456383
IRIDIUM 36              
1 24967U 97056C   25185.89460541  .00000323  00000+0  10113-3 0  9999
2 24967  86.3994 165.5637 0002165  82.1750 277.9693 14.37620745454767
